IRIDIUM 155             
1 43573U 18061E   25068.52252578  .00000169  00000+0  53213-4 0  9998
2 43573  86.3918 250.8106 0002177  83.1565 276.9879 14.34218396346761
IRIDIUM 154             
1 43574U 18061F   25067.87558302 -.00000008  00000+0 -98222-5 0  9994
2 43574  86.3923 251.1921 0001889  92.0676 268.0736 14.34217648346716
IRIDIUM 163             
1 43575U 18061G   25068.55424045  .00000081  00000+0  21763-4 0  9991
2 43575  86.3918 250.8378 0002184  92.8625 267.2821 14.34218062346788
IRIDIUM 156             
1 43576U 18061H   25068.04048957  .00000108  00000+0  31389-4 0  9995
2 43576  86.3919 251.0597 0002109  79.8794 280.2640 14.34218384346696
IRIDIUM 164             
1 43577U 18061J   25067.88192528  .00000054  00000+0  12116-4 0  9998
2 43577  86.3920 251.1589 0001816  92.8234 267.3170 14.34217747346729
IRIDIUM 159             
1 43578U 18061K   25068.54789755  .00000135  00000+0  41249-4 0  9996
2 43578  86.3919 250.8267 0002069  97.4594 262.6837 14.34218135346784
IRIDIUM 180             
1 43922U 19002A   25067.84970672  .00000551  00000+0  18976-3 0  9999
2 43922  86.4039 188.0537 0002202  96.6732 263.4715 14.34221879322290
IRIDIUM 176             
1 43923U 19002B   25067.85206905  .00002052  00000+0  32144-3 0  9993
2 43923  86.6164 188.0538 0002545 106.3406 253.8091 14.72258808330787
IRIDIUM 168             
1 43924U 19002C   25067.84336781 -.00000279  00000+0 -10659-3 0  9997
2 43924  86.4044 188.1206 0002041  98.9649 261.1777 14.34216764322273
IRIDIUM 173             
1 43925U 19002D   25067.76091144  .00000254  00000+0  83516-4 0  9994
2 43925  86.4039 188.0630 0002233  94.9970 265.1481 14.34220219322247
IRIDIUM 169             
1 43926U 19002E   25068.41131965  .00000830  00000+0  26480-3 0  9990
2 43926  86.4240 219.3669 0003539  78.2610 281.8985 14.38611394323403
IRIDIUM 172             
1 43927U 19002F   25067.82434019  .00000381  00000+0  12906-3 0  9990
2 43927  86.4042 188.0429 0002121 101.5289 258.6145 14.34217206322261
IRIDIUM 175             
1 43928U 19002G   25068.25467616  .00002026  00000+0  31736-3 0  9998
2 43928  86.1543 146.1219 0002447  68.7469 291.4009 14.72253111330835
IRIDIUM 171             
1 43929U 19002H   25067.87507960  .00000114  00000+0  33703-4 0  9996
2 43929  86.4049 188.2763 0001635  92.4746 267.6637 14.34217888322260
IRIDIUM 170             
1 43930U 19002J   25067.85828070  .00002067  00000+0  32380-3 0  9992
2 43930  86.6164 188.0564 0002271  82.6068 277.5407 14.72258648330797
IRIDIUM 167             
1 43931U 19002K   25067.86874094  .00000516  00000+0  17734-3 0  9994
2 43931  86.4039 188.0428 0002064  84.4075 275.7357 14.34215538322260
IRIDIUM 181             
1 56726U 23068S   25068.04490309  .00000293  00000+0  81141-4 0  9997
2 56726  86.4457 251.0560 0001717  80.4657 279.6738 14.43310543 95348
IRIDIUM 177             
1 56727U 23068T   25067.81792705  .00000528  00000+0  65981-4 0  9992
2 56727  86.2025 189.7254 0002049  85.9654 274.1801 14.80220127 97523
IRIDIUM 174             
1 56728U 23068U   25068.42090539  .00003468  00000+0  45273-3 0  9994
2 56728  86.2033 189.5642 0001668 100.5277 259.6132 14.80239868 97610
IRIDIUM 178             
1 56729U 23068V   25068.48307770  .00003474  00000+0  45356-3 0  9998
2 56729  86.5786 219.5228 0001408 111.0875 249.0497 14.80244754 97624
IRIDIUM 179             
1 56730U 23068W   25068.00443292  .00001698  00000+0  22012-3 0  9998
2 56730  86.6780 227.1894 0002001  93.2388 266.9063 14.80223580 97558
